{
  "type": "FeatureCollection",
  "features": [
    {
      "type": "Feature",
      "properties": {
        "norad_id": 54259,
        "name": "EUTELSAT 10B",
        "group": "eutelsat",
        "lat": -0.02158585664330377,
        "lon": -88.07106843728732,
        "alt_km": 35788.16433375692,
        "timestamp": "2025-12-20T11:30:28.042568+00:00",
        "meta_object_name": "EUTELSAT 10B",
        "meta_object_id": "2022-157A",
        "meta_epoch": "2025-12-20T03:00:22.362912",
        "meta_mean_motion": 1.00274144,
        "meta_eccentricity": 6.75e-05,
        "meta_inclination": 0.0606,
        "meta_ra_of_asc_node": 97.5404,
        "meta_arg_of_pericenter": 8.9249,
        "meta_mean_anomaly": 37.5953,
        "meta_ephemeris_type": 0,
        "meta_classification_type": "U",
        "meta_norad_cat_id": 54259,
        "meta_element_set_no": 999,
        "meta_rev_at_epoch": 1123,
        "meta_bstar": 0,
        "meta_mean_motion_dot": 9.3e-07,
        "meta_mean_motion_ddot": 0,
        "tle_line1": "1 54259U 22157A   25354.12525883  .00000093  00000+0  00000+0 0  9995",
        "tle_line2": "2 54259   0.0606  97.5404 0000675   8.9249  37.5953  1.00274144 11230"
      },
      "geometry": {
        "type": "Point",
        "coordinates": [
          -88.07106843728732,
          -0.02158585664330377
        ]
      }
    },
    {
      "type": "Feature",
      "properties": {
        "norad_id": 59346,
        "name": "EUTELSAT 36D",
        "group": "eutelsat",
        "lat": -0.048417153492244264,
        "lon": -62.24306122260584,
        "alt_km": 35785.08545630736,
        "timestamp": "2025-12-20T11:30:28.042579+00:00",
        "meta_object_name": "EUTELSAT 36D",
        "meta_object_id": "2024-059A",
        "meta_epoch": "2025-12-19T22:17:14.699904",
        "meta_mean_motion": 1.0027216,
        "meta_eccentricity": 6.51e-05,
        "meta_inclination": 0.0247,
        "meta_ra_of_asc_node": 22.0433,
        "meta_arg_of_pericenter": 347.9809,
        "meta_mean_anomaly": 88.8998,
        "meta_ephemeris_type": 0,
        "meta_classification_type": "U",
        "meta_norad_cat_id": 59346,
        "meta_element_set_no": 999,
        "meta_rev_at_epoch": 635,
        "meta_bstar": 0,
        "meta_mean_motion_dot": 0,
        "meta_mean_motion_ddot": 0,
        "tle_line1": "1 59346U 24059A   25353.92864236  .00000000  00000+0  00000+0 0  9993",
        "tle_line2": "2 59346   0.0247  22.0433 0000651 347.9809  88.8998  1.00272160  6351"
      },
      "geometry": {
        "type": "Point",
        "coordinates": [
          -62.24306122260584,
          -0.048417153492244264
        ]
      }
    }
  ]
}